[{"OBJECT_NAME":"AEROCUBE 6A","OBJECT_ID":"2014-033AM","EPOCH":"2026-03-09T22:20:23.815680","MEAN_MOTION":14.96848607,"ECCENTRICITY":0.00387302,"INCLINATION":97.7128,"RA_OF_ASC_NODE":237.0691,"ARG_OF_PERICENTER":349.0559,"MEAN_ANOMALY":10.9816,"EPHEMERIS_TYPE":0,"CLASSIFICATION_TYPE":"U","NORAD_CAT_ID":40045,"ELEMENT_SET_NO":999,"REV_AT_EPOCH":63176,"BSTAR":0.00067890448,"MEAN_MOTION_DOT":7.845e-5,"MEAN_MOTION_DDOT":0},{"OBJECT_NAME":"CZ-4C R\/B","OBJECT_ID":"2025-177B","EPOCH":"2026-03-09T11:34:42.840192","MEAN_MOTION":14.57851573,"ECCENTRICITY":0.01504332,"INCLINATION":10.994,"RA_OF_ASC_NODE":159.9936,"ARG_OF_PERICENTER":189.7756,"MEAN_ANOMALY":169.9521,"EPHEMERIS_TYPE":0,"CLASSIFICATION_TYPE":"U","NORAD_CAT_ID":65234,"ELEMENT_SET_NO":999,"REV_AT_EPOCH":2982,"BSTAR":0.00017362224,"MEAN_MOTION_DOT":1.531e-5,"MEAN_MOTION_DDOT":0}]
